[{"OBJECT_NAME":"STARLINK-36182","OBJECT_ID":"2025-304A","EPOCH":"2026-03-09T16:24:16.808832","MEAN_MOTION":14.98330411,"ECCENTRICITY":0.00038051,"INCLINATION":70.0026,"RA_OF_ASC_NODE":174.4842,"ARG_OF_PERICENTER":265.7123,"MEAN_ANOMALY":94.3601,"EPHEMERIS_TYPE":0,"CLASSIFICATION_TYPE":"U","NORAD_CAT_ID":67192,"ELEMENT_SET_NO":999,"REV_AT_EPOCH":1385,"BSTAR":0.00028103913,"MEAN_MOTION_DOT":3.262e-5,"MEAN_MOTION_DDOT":0},{"OBJECT_NAME":"MINOTAUR 1 R\/B","OBJECT_ID":"2021-052D","EPOCH":"2026-03-09T21:18:39.973824","MEAN_MOTION":14.98028633,"ECCENTRICITY":0.00079769,"INCLINATION":54.9882,"RA_OF_ASC_NODE":195.5395,"ARG_OF_PERICENTER":41.2727,"MEAN_ANOMALY":318.8885,"EPHEMERIS_TYPE":0,"CLASSIFICATION_TYPE":"U","NORAD_CAT_ID":48849,"ELEMENT_SET_NO":999,"REV_AT_EPOCH":16111,"BSTAR":0.00022925551,"MEAN_MOTION_DOT":2.48e-5,"MEAN_MOTION_DDOT":0}]
